{"fetched_at":"2026-07-08T18:00:55.803Z","source":"https://celestrak.org/NORAD/elements/gp.php?NAME=TIGER&FORMAT=JSON","constellation":"oq-technology","records":[{"OBJECT_NAME":"TIGER-8","OBJECT_ID":"2024-043Y","EPOCH":"2026-07-08T11:08:13.086240","CLASSIFICATION_TYPE":"U","MEAN_MOTION":15.45078068,"ECCENTRICITY":0.0008762,"INCLINATION":97.5566,"RA_OF_ASC_NODE":338.9388,"ARG_OF_PERICENTER":123.1181,"MEAN_ANOMALY":237.091,"EPHEMERIS_TYPE":0,"NORAD_CAT_ID":59120,"ELEMENT_SET_NO":999,"REV_AT_EPOCH":13107,"BSTAR":0.00014632,"MEAN_MOTION_DOT":0.0000683,"MEAN_MOTION_DDOT":0},{"OBJECT_NAME":"TIGER-7","OBJECT_ID":"2024-043AV","EPOCH":"2026-07-08T09:17:32.682048","CLASSIFICATION_TYPE":"U","MEAN_MOTION":15.49237051,"ECCENTRICITY":0.0006849,"INCLINATION":97.5507,"RA_OF_ASC_NODE":341.3273,"ARG_OF_PERICENTER":95.5452,"MEAN_ANOMALY":264.658,"EPHEMERIS_TYPE":0,"NORAD_CAT_ID":59141,"ELEMENT_SET_NO":999,"REV_AT_EPOCH":13125,"BSTAR":0.00015926,"MEAN_MOTION_DOT":0.00008597,"MEAN_MOTION_DDOT":0}]}
