TIGER-8                 
1 59120U 24043Y   26189.46404035  .00006830  00000+0  14632-3 0  9997
2 59120  97.5566 338.9388 0008762 123.1181 237.0910 15.45078068131077
TIGER-7                 
1 59141U 24043AV  26189.38718382  .00008597  00000+0  15926-3 0  9993
2 59141  97.5507 341.3273 0006849  95.5452 264.6580 15.49237051131255
